{"fetched_at":"2026-03-30T06:02:59Z","count":15439,"tles":[{"name":"STARLINK-32688","line1":"1 62193U 24229B   26087.67125996  .00013628  00000+0  50370-3 0  9995","line2":"2 62193  43.0014 163.5809 0001214 251.0357 109.0363 15.27589934 73463","category":"Starlink"}]}